CCSDS_OMM_VERS = 2.0
CREATION_DATE  = 
ORIGINATOR     = 

OBJECT_NAME    = STARLINK-36227
OBJECT_ID      = 2025-298W
CENTER_NAME    = EARTH
REF_FRAME      = TEME
TIME_SYSTEM    = UTC
MEAN_ELEMENT_THEORY = SGP/SGP4

EPOCH          = 2026-01-11T14:00:01.999872
MEAN_MOTION    = 15.42713589
ECCENTRICITY   = .0002627
INCLINATION    = 69.9999
RA_OF_ASC_NODE = 166.5615
ARG_OF_PERICENTER = 274.9413
MEAN_ANOMALY   = 341.3098

EPHEMERIS_TYPE = 0
CLASSIFICATION_TYPE = U
NORAD_CAT_ID   = 67095
ELEMENT_SET_NO = 999
REV_AT_EPOCH   = 571
BSTAR          = -.41256853E-4
MEAN_MOTION_DOT = -.1955E-4
MEAN_MOTION_DDOT = 0

CCSDS_OMM_VERS = 2.0
CREATION_DATE  = 
ORIGINATOR     = 

OBJECT_NAME    = STARLINK-36228
OBJECT_ID      = 2025-298X
CENTER_NAME    = EARTH
REF_FRAME      = TEME
TIME_SYSTEM    = UTC
MEAN_ELEMENT_THEORY = SGP/SGP4

EPOCH          = 2026-01-11T13:59:18.677184
MEAN_MOTION    = 15.51508723
ECCENTRICITY   = .00040101
INCLINATION    = 69.9996
RA_OF_ASC_NODE = 166.4419
ARG_OF_PERICENTER = 298.8532
MEAN_ANOMALY   = 61.2252

EPHEMERIS_TYPE = 0
CLASSIFICATION_TYPE = U
NORAD_CAT_ID   = 67096
ELEMENT_SET_NO = 999
REV_AT_EPOCH   = 446
BSTAR          = -.67445228E-2
MEAN_MOTION_DOT = -.381785E-2
MEAN_MOTION_DDOT = 0

CCSDS_OMM_VERS = 2.0
CREATION_DATE  = 
ORIGINATOR     = 

OBJECT_NAME    = STARLINK-36222
OBJECT_ID      = 2025-298Y
CENTER_NAME    = EARTH
REF_FRAME      = TEME
TIME_SYSTEM    = UTC
MEAN_ELEMENT_THEORY = SGP/SGP4

EPOCH          = 2026-01-11T14:00:01.999872
MEAN_MOTION    = 15.45150099
ECCENTRICITY   = .00037307
INCLINATION    = 70.0000
RA_OF_ASC_NODE = 166.4606
ARG_OF_PERICENTER = 277.6123
MEAN_ANOMALY   = 65.5576

EPHEMERIS_TYPE = 0
CLASSIFICATION_TYPE = U
NORAD_CAT_ID   = 67097
ELEMENT_SET_NO = 999
REV_AT_EPOCH   = 571
BSTAR          = -.54965415E-1
MEAN_MOTION_DOT = -.2335672E-1
MEAN_MOTION_DDOT = 0

CCSDS_OMM_VERS = 2.0
CREATION_DATE  = 
ORIGINATOR     = 

OBJECT_NAME    = STARLINK-36205
OBJECT_ID      = 2025-298Z
CENTER_NAME    = EARTH
REF_FRAME      = TEME
TIME_SYSTEM    = UTC
MEAN_ELEMENT_THEORY = SGP/SGP4

EPOCH          = 2026-01-11T13:40:01.057152
MEAN_MOTION    = 15.42755804
ECCENTRICITY   = .00024986
INCLINATION    = 70.0016
RA_OF_ASC_NODE = 166.8044
ARG_OF_PERICENTER = 245.4558
MEAN_ANOMALY   = 114.6363

EPHEMERIS_TYPE = 0
CLASSIFICATION_TYPE = U
NORAD_CAT_ID   = 67098
ELEMENT_SET_NO = 999
REV_AT_EPOCH   = 445
BSTAR          = .59049472E-3
MEAN_MOTION_DOT = .25834E-3
MEAN_MOTION_DDOT = 0

CCSDS_OMM_VERS = 2.0
CREATION_DATE  = 
ORIGINATOR     = 

OBJECT_NAME    = STARLINK-36193
OBJECT_ID      = 2025-298AA
CENTER_NAME    = EARTH
REF_FRAME      = TEME
TIME_SYSTEM    = UTC
MEAN_ELEMENT_THEORY = SGP/SGP4

EPOCH          = 2026-01-11T16:11:28.948704
MEAN_MOTION    = 15.42746107
ECCENTRICITY   = .0003235
INCLINATION    = 70.0010
RA_OF_ASC_NODE = 166.7769
ARG_OF_PERICENTER = 273.1461
MEAN_ANOMALY   = 86.9350

EPHEMERIS_TYPE = 0
CLASSIFICATION_TYPE = U
NORAD_CAT_ID   = 67099
ELEMENT_SET_NO = 999
REV_AT_EPOCH   = 446
BSTAR          = .5330021E-3
MEAN_MOTION_DOT = .2329E-3
MEAN_MOTION_DDOT = 0

CCSDS_OMM_VERS = 2.0
CREATION_DATE  = 
ORIGINATOR     = 

OBJECT_NAME    = STARLINK-36215
OBJECT_ID      = 2025-298AB
CENTER_NAME    = EARTH
REF_FRAME      = TEME
TIME_SYSTEM    = UTC
MEAN_ELEMENT_THEORY = SGP/SGP4

EPOCH          = 2026-01-11T13:56:34.259712
MEAN_MOTION    = 15.52545116
ECCENTRICITY   = .00035649
INCLINATION    = 70.0010
RA_OF_ASC_NODE = 166.4359
ARG_OF_PERICENTER = 281.4214
MEAN_ANOMALY   = 78.6572

EPHEMERIS_TYPE = 0
CLASSIFICATION_TYPE = U
NORAD_CAT_ID   = 67100
ELEMENT_SET_NO = 999
REV_AT_EPOCH   = 446
BSTAR          = .1501486E-2
MEAN_MOTION_DOT = .93388E-3
MEAN_MOTION_DDOT = 0

CCSDS_OMM_VERS = 2.0
CREATION_DATE  = 
ORIGINATOR     = 

OBJECT_NAME    = STARLINK-36200
OBJECT_ID      = 2025-298AC
CENTER_NAME    = EARTH
REF_FRAME      = TEME
TIME_SYSTEM    = UTC
MEAN_ELEMENT_THEORY = SGP/SGP4

EPOCH          = 2026-01-11T13:16:39.686304
MEAN_MOTION    = 15.42744323
ECCENTRICITY   = .00055885
INCLINATION    = 69.9991
RA_OF_ASC_NODE = 166.7448
ARG_OF_PERICENTER = 300.3498
MEAN_ANOMALY   = 59.7131

EPHEMERIS_TYPE = 0
CLASSIFICATION_TYPE = U
NORAD_CAT_ID   = 67101
ELEMENT_SET_NO = 999
REV_AT_EPOCH   = 445
BSTAR          = .5440771E-3
MEAN_MOTION_DOT = .23785E-3
MEAN_MOTION_DDOT = 0

CCSDS_OMM_VERS = 2.0
CREATION_DATE  = 
ORIGINATOR     = 

OBJECT_NAME    = STARLINK-36255
OBJECT_ID      = 2025-299A
CENTER_NAME    = EARTH
REF_FRAME      = TEME
TIME_SYSTEM    = UTC
MEAN_ELEMENT_THEORY = SGP/SGP4

EPOCH          = 2026-01-11T08:53:23.749728
MEAN_MOTION    = 15.40727459
ECCENTRICITY   = .00012708
INCLINATION    = 42.9983
RA_OF_ASC_NODE = 139.3185
ARG_OF_PERICENTER = 266.5910
MEAN_ANOMALY   = 93.4801

EPHEMERIS_TYPE = 0
CLASSIFICATION_TYPE = U
NORAD_CAT_ID   = 67102
ELEMENT_SET_NO = 999
REV_AT_EPOCH   = 427
BSTAR          = .12794061E-2
MEAN_MOTION_DOT = .53565E-3
MEAN_MOTION_DDOT = 0

CCSDS_OMM_VERS = 2.0
CREATION_DATE  = 
ORIGINATOR     = 

OBJECT_NAME    = STARLINK-36256
OBJECT_ID      = 2025-299B
CENTER_NAME    = EARTH
REF_FRAME      = TEME
TIME_SYSTEM    = UTC
MEAN_ELEMENT_THEORY = SGP/SGP4

EPOCH          = 2026-01-11T15:00:20.981376
MEAN_MOTION    = 15.40736163
ECCENTRICITY   = .00021116
INCLINATION    = 43.0028
RA_OF_ASC_NODE = 137.7885
ARG_OF_PERICENTER = 269.7265
MEAN_ANOMALY   = 90.3349

EPHEMERIS_TYPE = 0
CLASSIFICATION_TYPE = U
NORAD_CAT_ID   = 67103
ELEMENT_SET_NO = 999
REV_AT_EPOCH   = 431
BSTAR          = .58058425E-3
MEAN_MOTION_DOT = .24055E-3
MEAN_MOTION_DDOT = 0

CCSDS_OMM_VERS = 2.0
CREATION_DATE  = 
ORIGINATOR     = 

OBJECT_NAME    = STARLINK-36258
OBJECT_ID      = 2025-299C
CENTER_NAME    = EARTH
REF_FRAME      = TEME
TIME_SYSTEM    = UTC
MEAN_ELEMENT_THEORY = SGP/SGP4

EPOCH          = 2026-01-11T15:28:16.493376
MEAN_MOTION    = 15.50596120
ECCENTRICITY   = .00019827
INCLINATION    = 43.0011
RA_OF_ASC_NODE = 137.0632
ARG_OF_PERICENTER = 278.7530
MEAN_ANOMALY   = 81.3105

EPHEMERIS_TYPE = 0
CLASSIFICATION_TYPE = U
NORAD_CAT_ID   = 67104
ELEMENT_SET_NO = 999
REV_AT_EPOCH   = 432
BSTAR          = .12442199E-2
MEAN_MOTION_DOT = .73384E-3
MEAN_MOTION_DDOT = 0

CCSDS_OMM_VERS = 2.0
CREATION_DATE  = 
ORIGINATOR     = 

OBJECT_NAME    = STARLINK-36261
OBJECT_ID      = 2025-299D
CENTER_NAME    = EARTH
REF_FRAME      = TEME
TIME_SYSTEM    = UTC
MEAN_ELEMENT_THEORY = SGP/SGP4

EPOCH          = 2026-01-11T08:50:09.994272
MEAN_MOTION    = 15.40763532
ECCENTRICITY   = .00010805
INCLINATION    = 42.9972
RA_OF_ASC_NODE = 139.3002
ARG_OF_PERICENTER = 290.9311
MEAN_ANOMALY   = 69.1430

EPHEMERIS_TYPE = 0
CLASSIFICATION_TYPE = U
NORAD_CAT_ID   = 67105
ELEMENT_SET_NO = 999
REV_AT_EPOCH   = 427
BSTAR          = .12573682E-2
MEAN_MOTION_DOT = .52695E-3
MEAN_MOTION_DDOT = 0

CCSDS_OMM_VERS = 2.0
CREATION_DATE  = 
ORIGINATOR     = 

OBJECT_NAME    = STARLINK-36259
OBJECT_ID      = 2025-299E
CENTER_NAME    = EARTH
REF_FRAME      = TEME
TIME_SYSTEM    = UTC
MEAN_ELEMENT_THEORY = SGP/SGP4

EPOCH          = 2026-01-11T14:37:46.381440
MEAN_MOTION    = 15.40762597
ECCENTRICITY   = .0000404
INCLINATION    = 43.0001
RA_OF_ASC_NODE = 137.6671
ARG_OF_PERICENTER = 269.6614
MEAN_ANOMALY   = 90.4196

EPHEMERIS_TYPE = 0
CLASSIFICATION_TYPE = U
NORAD_CAT_ID   = 67106
ELEMENT_SET_NO = 999
REV_AT_EPOCH   = 431
BSTAR          = .10807327E-2
MEAN_MOTION_DOT = .45203E-3
MEAN_MOTION_DDOT = 0

