STARLINK-36227          
1 67095U 25298W   26011.58335648 -.00001955  00000+0 -41257-4 0  9999
2 67095  69.9999 166.5615 0002627 274.9413 341.3098 15.42713589  5713
STARLINK-36228          
1 67096U 25298X   26011.58285506 -.00381785  00000+0 -67445-2 0  9994
2 67096  69.9996 166.4419 0004010 298.8532  61.2252 15.51508723  4460
STARLINK-36222          
1 67097U 25298Y   26011.58335648 -.02335672  00000+0 -54965-1 0  9996
2 67097  70.0000 166.4606 0003730 277.6123  65.5576 15.45150099  5714
STARLINK-36205          
1 67098U 25298Z   26011.56945668  .00025834  00000+0  59049-3 0  9996
2 67098  70.0016 166.8044 0002498 245.4558 114.6363 15.42755804  4459
STARLINK-36193          
1 67099U 25298AA  26011.67464061  .00023290  00000+0  53300-3 0  9990
2 67099  70.0010 166.7769 0003235 273.1461  86.9350 15.42746107  4462
STARLINK-36215          
1 67100U 25298AB  26011.58095208  .00093388  00000+0  15015-2 0  9991
2 67100  70.0010 166.4359 0003564 281.4214  78.6572 15.52545116  4462
STARLINK-36200          
1 67101U 25298AC  26011.55323711  .00023785  00000+0  54408-3 0  9996
2 67101  69.9991 166.7448 0005588 300.3498  59.7131 15.42744323  4453
STARLINK-36255          
1 67102U 25299A   26011.37041377  .00053565  00000+0  12794-2 0  9993
2 67102  42.9983 139.3185 0001270 266.5910  93.4801 15.40727459  4274
STARLINK-36256          
1 67103U 25299B   26011.62524284  .00024055  00000+0  58058-3 0  9991
2 67103  43.0028 137.7885 0002111 269.7265  90.3349 15.40736163  4319
STARLINK-36258          
1 67104U 25299C   26011.64463534  .00073384  00000+0  12442-2 0  9999
2 67104  43.0011 137.0632 0001982 278.7530  81.3105 15.50596120  4324
STARLINK-36261          
1 67105U 25299D   26011.36817123  .00052695  00000+0  12574-2 0  9994
2 67105  42.9972 139.3002 0001080 290.9311  69.1430 15.40763532  4278
STARLINK-36259          
1 67106U 25299E   26011.60956460  .00045203  00000+0  10807-2 0  9994
2 67106  43.0001 137.6671 0000404 269.6614  90.4196 15.40762597  4316
